YUNHAI-2 1              
1 43909U 18112A   19027.86968554  .00000899  00000-0  63436-4 0  9990
2 43909  50.0152  41.7413 0006190   8.8941  53.0166 15.15107717  4477
YUNHAI-2 2              
1 43910U 18112B   19027.78215278  .00000709  00000-0  52958-4 0  9998
2 43910  50.0155  42.0808 0007248  20.9310 324.8906 15.15498284  4455
YUNHAI-2 3              
1 43911U 18112C   19027.77552083  .00000321  00000-0  32466-4 0  9998
2 43911  50.0150  42.0241 0008575  27.2012 324.6842 15.15893429  4452
YUNHAI-2 4              
1 43912U 18112D   19027.65749165 -.00000104  00000-0  43668-4 0  9991
2 43912  50.0117  77.3497 0006677 350.1190   9.9554 13.44338320  3946
YUNHAI-2 5              
1 43913U 18112E   19027.66556730 -.00000090  00000-0  66930-4 0  9998
2 43913  50.0106  77.3892 0005285 336.2843  23.7789 13.43966600  3949
HONGYAN 1               
1 43914U 18112F   19027.67114895 -.00000129  00000-0  00000+0 0  9996
2 43914  50.0092  77.4111 0006541 322.2089  37.8324 13.43708083  3942
YUNHAI-2 6              
1 43915U 18112G   19027.82177003 -.00000132  00000-0 -55264-5 0  9997
2 43915  50.0122  76.8807 0005157 318.4088  41.6396 13.43623633  3961
CHINASAT 2D             
1 43920U 19001A   19024.03313264 -.00000350  00000-0  10000-3 0  9990
2 43920   0.0511 236.7844 0001775  80.5402 307.6123  1.00266940   291
CZ-3B R/B               
1 43921U 19001B   19027.59757894  .00067410  38172-6  32331-3 0  9993
2 43921  27.0685 358.3151 7230855 189.7329 139.4301  2.40378133   422
IRIDIUM 180             
1 43922U 19002A   19018.63815505 -.00000120  00000-0 -18034-4 0  9999
2 43922  86.6805  44.6391 0011212 189.2587 170.8379 14.83222364  1033
IRIDIUM 176             
1 43923U 19002B   19027.60941261  .00000059  00000-0  37954-5 0  9998
2 43923  86.6765  40.8897 0013892 153.8112 206.3817 14.83379169  2359
IRIDIUM 168             
1 43924U 19002C   19027.47341126  .00000003  00000-0 -45134-5 0  9997
2 43924  86.4963  40.9390 0001228  64.1668 295.9664 14.52383062  2309
IRIDIUM 173             
1 43925U 19002D   19027.79625856  .00000012  00000-0 -28978-5 0  9995
2 43925  86.3948  40.7984 0001999  91.9991 268.1434 14.34241740  2348
IRIDIUM 169             
1 43926U 19002E   19027.60782345  .00000070  00000-0  51046-5 0  9998
2 43926  86.6818  40.9026 0014621 153.6316 206.5655 14.83527688  2354
IRIDIUM 172             
1 43927U 19002F   19025.65120944  .00000060  00000-0  95152-5 0  9998
2 43927  86.4987  41.6987 0001785  75.0554 285.0849 14.52356824  2032
IRIDIUM 175             
1 43928U 19002G   19027.51455498  .00000046  00000-0  33720-5 0  9998
2 43928  86.6068  40.9255 0001643 119.5785 240.5596 14.72252661  2332
IRIDIUM 171             
1 43929U 19002H   19027.56156323  .00000016  00000-0 -12029-5 0  9996
2 43929  86.3958  40.9047 0001968  83.3091 276.8329 14.34221011  2301
IRIDIUM 170             
1 43930U 19002J   19027.60860590  .00000074  00000-0  56474-5 0  9996
2 43930  86.6767  40.8891 0014224 153.4446 206.7509 14.83454778  2351
IRIDIUM 167             
1 43931U 19002K   19027.55521953  .00000019  00000-0 -19015-6 0  9999
2 43931  86.3950  40.8998 0002007  54.9823 305.1561 14.34220243  2302
2019-003A               
1 43932U 19003A   19027.82528714  .00000408  00000-0  21688-4 0  9991
2 43932  97.3024  89.8054 0009329 220.1321 192.0648 15.20523913  1480
ORIGAMISAT-1            
1 43933U 19003B   19027.82940726  .00000617  00000-0  30449-4 0  9990
2 43933  97.3017  89.8196 0017104 219.4619 246.1930 15.21409992  1487
RISESAT                 
1 43934U 19003C   19027.82751948  .00000368  00000-0  19233-4 0  9998
2 43934  97.3009  89.8220 0016003 211.7436 252.4311 15.21659494  1483
MICRODRAGON             
1 43935U 19003D   19027.82643700  .00000525  00000-0  26046-4 0  9990
2 43935  97.3028  89.8255 0017521 213.0436 251.4497 15.21840211  1487
2019-003E               
1 43936U 19003E   19027.82149707  .00000563  00000-0  26885-4 0  9992
2 43936  97.3026  89.8350 0024060 217.9578 254.4906 15.22842275  1489
NEXUS                   
1 43937U 19003F   19027.87413485  .00000930  00000-0  41969-4 0  9993
2 43937  97.2963  89.8793 0023852 208.9719 204.4174 15.23201346  1497
ALE-1                   
1 43938U 19003G   19027.81884728  .00000267  00000-0  14150-4 0  9995
2 43938  97.3042  89.8400 0024434 212.4822 258.8678 15.23222019  1485
2019-003H               
1 43939U 19003H   19027.83911565  .00120122  16470-5  37527-3 0  9996
2 43939  97.1560  89.7418 0366443 114.2526 358.9338 15.31697408  1499
AOBA VELOX-IV           
1 43940U 19003J   19027.81518091  .00001519  00000-0  66580-4 0  9990
2 43940  97.2966  89.8217 0024033 208.9777 243.5479 15.23269137  1484
LINGQUE 1A              
1 43942U 19005A   19027.84725591  .00000451  00000-0  29424-4 0  9992
2 43942  97.5107 126.8453 0016557 276.2481 180.9945 15.12724871  1001
JILIN-01-09             
1 43943U 19005B   19027.90981448 -.00001246  00000-0 -69296-4 0  9991
2 43943  97.5119 126.8976 0013110 264.8448 149.0251 15.11718311  1000
XIAOXIANG 3             
1 43944U 19005C   19027.86068220  .00000706  00000-0  45307-4 0  9996
2 43944  97.5115 126.8472 0011452 265.5934 237.9534 15.11602127   987
CZ-11 R/B               
1 43945U 19005D   19027.75073016  .10022908  27326-5  11408-3 0  9992
2 43945  97.3454 127.4318 0129906 286.4086  73.4532 16.29011077  1038
JILIN-01-10             
1 43946U 19005E   19027.79433550 -.00000054  00000-0  68982-6 0  9995
2 43946  97.5104 126.7900 0016044 262.3353 259.3301 15.12723079   918
MICROSAT-R              
1 43947U 19006A   19027.92087974  .00308624  41577-4  58869-3 0  9998
2 43947  96.5937 301.8868 0020935 329.0290  30.3139 16.00196673   509
KALAMSAT-V2 & PSLV R/B  
1 43948U 19006B   19027.91196898  .00001404  00000-0  39243-4 0  9998
2 43948  98.7969 302.6985 0003345 234.9129 125.1800 15.39023846   475
